ALOS (DAICHI)           
1 28931U 06002A   26075.85516822  .00001265  00000+0  22002-3 0  9990
2 28931  98.1230  31.7752 0000728  72.2963 287.8322 14.69833506 74535
H-2A R/B                
1 28932U 06002B   26075.86725362  .00008440  00000+0  42144-3 0  9994
2 28932  98.2417 223.5098 0051996 216.3088 143.4611 15.16584574 95521
RESURS-DK 1             
1 29228U 06021A   26075.80896721  .00002855  00000+0  16832-3 0  9995
2 29228  69.9330 218.6056 0001128 150.4180 209.7050 15.12798052 88609
CZ-4B R/B               
1 29507U 06046C   26075.86524704  .00004235  00000+0  21528-3 0  9999
2 29507  97.5584 120.7549 0031837 241.2169 118.5865 15.16980917 61130
CZ-2C R/B               
1 31114U 07010B   26075.84136254  .00000111  00000+0  70151-4 0  9991
2 31114  98.3985 188.7618 0057830 273.4232  86.0331 14.20248825980733
COSMO-SKYMED 1          
1 31598U 07023A   26075.81859103  .00003630  00000+0  32399-3 0  9993
2 31598  97.8881 266.9085 0001584  91.3236 268.8167 14.96598159 15974
COSMOS 2428             
1 31792U 07029A   26075.61422198 -.00000019  00000+0  15710-4 0  9991
2 31792  70.9439 188.8098 0009390 270.0339  89.9706 14.12947222965073
SL-16 R/B               
1 31793U 07029B   26074.66384344  .00000274  00000+0  16675-3 0  9998
2 31793  70.9757 159.8277 0002271 276.2076 246.2511 14.14835963966210
KORONAS-FOTON           
1 33504U 09003A   26075.24772589  .00013504  00000+0  29988-3 0  9992
2 33504  82.4272 269.0586 0011672 128.1379 232.0922 15.43485725946751
CZ-2C R/B               
1 37731U 11030B   26075.83410256  .00001505  00000+0  19564-3 0  9993
2 37731  97.8556  32.9547 0051806 328.6629  60.9290 14.81249910791157
H-2A R/B                
1 38341U 12025E   26075.88915671  .00002352  00000+0  21634-3 0  9994
2 38341  98.4735  43.5121 0043294 290.0304  69.6256 14.95221717749297
SHIJIAN-16 (SJ-16)      
1 39358U 13057A   26075.86915167  .00002283  00000+0  22533-3 0  9999
2 39358  74.9736 171.4977 0015391  94.0721 266.2227 14.92380489672576
SL-4 R/B                
1 39679U 14021B   26075.90012220  .00013942  00000+0  30655-3 0  9998
2 39679  51.6064 302.0970 0096865 129.3087 231.6536 15.39425848657387
ALOS-2                  
1 39766U 14029A   26075.82003650  .00001884  00000+0  25872-3 0  9998
2 39766  97.9191 174.3136 0001418  92.2531 267.8843 14.79534078637923
YAOGAN-29               
1 41038U 15069A   26075.87903270  .00000070  00000+0  15252-4 0  9998
2 41038  98.0139 104.3276 0001448  23.6654 336.4626 14.83002359556948
ASTRO-H (HITOMI)        
1 41337U 16012A   26075.83917895  .00002769  00000+0  16027-3 0  9990
2 41337  30.9999 310.4099 0009648  42.6083 317.5302 15.10054414553318
HXMT (HUIYAN)           
1 42758U 17034A   26075.82040439  .00004954  00000+0  25047-3 0  9993
2 42758  43.0159 337.0279 0033210 279.3097  80.3997 15.17569885483621
