[{"OBJECT_NAME":"ALOS (DAICHI)","OBJECT_ID":"2006-002A","EPOCH":"2026-03-16T20:31:26.534208","MEAN_MOTION":14.69833506,"ECCENTRICITY":7.28e-5,"INCLINATION":98.123,"RA_OF_ASC_NODE":31.7752,"ARG_OF_PERICENTER":72.2963,"MEAN_ANOMALY":287.8322,"EPHEMERIS_TYPE":0,"CLASSIFICATION_TYPE":"U","NORAD_CAT_ID":28931,"ELEMENT_SET_NO":999,"REV_AT_EPOCH":7453,"BSTAR":0.00022002,"MEAN_MOTION_DOT":1.265e-5,"MEAN_MOTION_DDOT":0},{"OBJECT_NAME":"H-2A R/B","OBJECT_ID":"2006-002B","EPOCH":"2026-03-16T20:48:50.712768","MEAN_MOTION":15.16584574,"ECCENTRICITY":0.0051996,"INCLINATION":98.2417,"RA_OF_ASC_NODE":223.5098,"ARG_OF_PERICENTER":216.3088,"MEAN_ANOMALY":143.4611,"EPHEMERIS_TYPE":0,"CLASSIFICATION_TYPE":"U","NORAD_CAT_ID":28932,"ELEMENT_SET_NO":999,"REV_AT_EPOCH":9552,"BSTAR":0.00042144,"MEAN_MOTION_DOT":8.44e-5,"MEAN_MOTION_DDOT":0},{"OBJECT_NAME":"RESURS-DK 1","OBJECT_ID":"2006-021A","EPOCH":"2026-03-16T19:24:54.766944","MEAN_MOTION":15.12798052,"ECCENTRICITY":0.0001128,"INCLINATION":69.933,"RA_OF_ASC_NODE":218.6056,"ARG_OF_PERICENTER":150.418,"MEAN_ANOMALY":209.705,"EPHEMERIS_TYPE":0,"CLASSIFICATION_TYPE":"U","NORAD_CAT_ID":29228,"ELEMENT_SET_NO":999,"REV_AT_EPOCH":8860,"BSTAR":0.00016832,"MEAN_MOTION_DOT":2.855e-5,"MEAN_MOTION_DDOT":0},{"OBJECT_NAME":"CZ-4B R/B","OBJECT_ID":"2006-046C","EPOCH":"2026-03-16T20:45:57.344256","MEAN_MOTION":15.16980917,"ECCENTRICITY":0.0031837,"INCLINATION":97.5584,"RA_OF_ASC_NODE":120.7549,"ARG_OF_PERICENTER":241.2169,"MEAN_ANOMALY":118.5865,"EPHEMERIS_TYPE":0,"CLASSIFICATION_TYPE":"U","NORAD_CAT_ID":29507,"ELEMENT_SET_NO":999,"REV_AT_EPOCH":6113,"BSTAR":0.00021528,"MEAN_MOTION_DOT":4.235e-5,"MEAN_MOTION_DDOT":0},{"OBJECT_NAME":"CZ-2C R/B","OBJECT_ID":"2007-010B","EPOCH":"2026-03-16T20:11:33.723456","MEAN_MOTION":14.20248825,"ECCENTRICITY":0.005783,"INCLINATION":98.3985,"RA_OF_ASC_NODE":188.7618,"ARG_OF_PERICENTER":273.4232,"MEAN_ANOMALY":86.0331,"EPHEMERIS_TYPE":0,"CLASSIFICATION_TYPE":"U","NORAD_CAT_ID":31114,"ELEMENT_SET_NO":999,"REV_AT_EPOCH":98073,"BSTAR":7.0151e-5,"MEAN_MOTION_DOT":1.11e-6,"MEAN_MOTION_DDOT":0},{"OBJECT_NAME":"COSMO-SKYMED 1","OBJECT_ID":"2007-023A","EPOCH":"2026-03-16T19:38:46.264992","MEAN_MOTION":14.96598159,"ECCENTRICITY":0.0001584,"INCLINATION":97.8881,"RA_OF_ASC_NODE":266.9085,"ARG_OF_PERICENTER":91.3236,"MEAN_ANOMALY":268.8167,"EPHEMERIS_TYPE":0,"CLASSIFICATION_TYPE":"U","NORAD_CAT_ID":31598,"ELEMENT_SET_NO":999,"REV_AT_EPOCH":1597,"BSTAR":0.00032399,"MEAN_MOTION_DOT":3.63e-5,"MEAN_MOTION_DDOT":0},{"OBJECT_NAME":"COSMOS 2428","OBJECT_ID":"2007-029A","EPOCH":"2026-03-16T14:44:28.779072","MEAN_MOTION":14.12947222,"ECCENTRICITY":0.000939,"INCLINATION":70.9439,"RA_OF_ASC_NODE":188.8098,"ARG_OF_PERICENTER":270.0339,"MEAN_ANOMALY":89.9706,"EPHEMERIS_TYPE":0,"CLASSIFICATION_TYPE":"U","NORAD_CAT_ID":31792,"ELEMENT_SET_NO":999,"REV_AT_EPOCH":96507,"BSTAR":1.571e-5,"MEAN_MOTION_DOT":-1.9e-7,"MEAN_MOTION_DDOT":0},{"OBJECT_NAME":"SL-16 R/B","OBJECT_ID":"2007-029B","EPOCH":"2026-03-15T15:55:56.073216","MEAN_MOTION":14.14835963,"ECCENTRICITY":0.00022711,"INCLINATION":70.9757,"RA_OF_ASC_NODE":159.8277,"ARG_OF_PERICENTER":276.2076,"MEAN_ANOMALY":246.2511,"EPHEMERIS_TYPE":0,"CLASSIFICATION_TYPE":"U","NORAD_CAT_ID":31793,"ELEMENT_SET_NO":999,"REV_AT_EPOCH":96621,"BSTAR":0.00016674816,"MEAN_MOTION_DOT":2.74e-6,"MEAN_MOTION_DDOT":0},{"OBJECT_NAME":"KORONAS-FOTON","OBJECT_ID":"2009-003A","EPOCH":"2026-03-16T05:56:43.516896","MEAN_MOTION":15.43485725,"ECCENTRICITY":0.00116723,"INCLINATION":82.4272,"RA_OF_ASC_NODE":269.0586,"ARG_OF_PERICENTER":128.1379,"MEAN_ANOMALY":232.0922,"EPHEMERIS_TYPE":0,"CLASSIFICATION_TYPE":"U","NORAD_CAT_ID":33504,"ELEMENT_SET_NO":999,"REV_AT_EPOCH":94675,"BSTAR":0.00029987924,"MEAN_MOTION_DOT":0.00013504,"MEAN_MOTION_DDOT":0},{"OBJECT_NAME":"CZ-2C R/B","OBJECT_ID":"2011-030B","EPOCH":"2026-03-16T20:01:06.461184","MEAN_MOTION":14.8124991,"ECCENTRICITY":0.0051806,"INCLINATION":97.8556,"RA_OF_ASC_NODE":32.9547,"ARG_OF_PERICENTER":328.6629,"MEAN_ANOMALY":60.929,"EPHEMERIS_TYPE":0,"CLASSIFICATION_TYPE":"U","NORAD_CAT_ID":37731,"ELEMENT_SET_NO":999,"REV_AT_EPOCH":79115,"BSTAR":0.00019564,"MEAN_MOTION_DOT":1.505e-5,"MEAN_MOTION_DDOT":0},{"OBJECT_NAME":"H-2A R/B","OBJECT_ID":"2012-025E","EPOCH":"2026-03-16T21:20:23.139744","MEAN_MOTION":14.95221717,"ECCENTRICITY":0.0043294,"INCLINATION":98.4735,"RA_OF_ASC_NODE":43.5121,"ARG_OF_PERICENTER":290.0304,"MEAN_ANOMALY":69.6256,"EPHEMERIS_TYPE":0,"CLASSIFICATION_TYPE":"U","NORAD_CAT_ID":38341,"ELEMENT_SET_NO":999,"REV_AT_EPOCH":74929,"BSTAR":0.00021634,"MEAN_MOTION_DOT":2.352e-5,"MEAN_MOTION_DDOT":0},{"OBJECT_NAME":"SHIJIAN-16 (SJ-16)","OBJECT_ID":"2013-057A","EPOCH":"2026-03-16T20:51:34.704288","MEAN_MOTION":14.92380489,"ECCENTRICITY":0.0015391,"INCLINATION":74.9736,"RA_OF_ASC_NODE":171.4977,"ARG_OF_PERICENTER":94.0721,"MEAN_ANOMALY":266.2227,"EPHEMERIS_TYPE":0,"CLASSIFICATION_TYPE":"U","NORAD_CAT_ID":39358,"ELEMENT_SET_NO":999,"REV_AT_EPOCH":67257,"BSTAR":0.00022533,"MEAN_MOTION_DOT":2.283e-5,"MEAN_MOTION_DDOT":0},{"OBJECT_NAME":"SL-4 R/B","OBJECT_ID":"2014-021B","EPOCH":"2026-03-16T21:36:10.558080","MEAN_MOTION":15.39425848,"ECCENTRICITY":0.0096865,"INCLINATION":51.6064,"RA_OF_ASC_NODE":302.097,"ARG_OF_PERICENTER":129.3087,"MEAN_ANOMALY":231.6536,"EPHEMERIS_TYPE":0,"CLASSIFICATION_TYPE":"U","NORAD_CAT_ID":39679,"ELEMENT_SET_NO":999,"REV_AT_EPOCH":65738,"BSTAR":0.00030655,"MEAN_MOTION_DOT":0.00013942,"MEAN_MOTION_DDOT":0},{"OBJECT_NAME":"ALOS-2","OBJECT_ID":"2014-029A","EPOCH":"2026-03-16T19:40:51.153600","MEAN_MOTION":14.79534078,"ECCENTRICITY":0.0001418,"INCLINATION":97.9191,"RA_OF_ASC_NODE":174.3136,"ARG_OF_PERICENTER":92.2531,"MEAN_ANOMALY":267.8843,"EPHEMERIS_TYPE":0,"CLASSIFICATION_TYPE":"U","NORAD_CAT_ID":39766,"ELEMENT_SET_NO":999,"REV_AT_EPOCH":63792,"BSTAR":0.00025872,"MEAN_MOTION_DOT":1.884e-5,"MEAN_MOTION_DDOT":0},{"OBJECT_NAME":"YAOGAN-29","OBJECT_ID":"2015-069A","EPOCH":"2026-03-16T21:05:48.425280","MEAN_MOTION":14.83002359,"ECCENTRICITY":0.0001448,"INCLINATION":98.0139,"RA_OF_ASC_NODE":104.3276,"ARG_OF_PERICENTER":23.6654,"MEAN_ANOMALY":336.4626,"EPHEMERIS_TYPE":0,"CLASSIFICATION_TYPE":"U","NORAD_CAT_ID":41038,"ELEMENT_SET_NO":999,"REV_AT_EPOCH":55694,"BSTAR":1.5252e-5,"MEAN_MOTION_DOT":7.0e-7,"MEAN_MOTION_DDOT":0},{"OBJECT_NAME":"ASTRO-H (HITOMI)","OBJECT_ID":"2016-012A","EPOCH":"2026-03-16T20:08:25.061280","MEAN_MOTION":15.10054414,"ECCENTRICITY":0.0009648,"INCLINATION":30.9999,"RA_OF_ASC_NODE":310.4099,"ARG_OF_PERICENTER":42.6083,"MEAN_ANOMALY":317.5302,"EPHEMERIS_TYPE":0,"CLASSIFICATION_TYPE":"U","NORAD_CAT_ID":41337,"ELEMENT_SET_NO":999,"REV_AT_EPOCH":55331,"BSTAR":0.00016027,"MEAN_MOTION_DOT":2.769e-5,"MEAN_MOTION_DDOT":0},{"OBJECT_NAME":"HXMT (HUIYAN)","OBJECT_ID":"2017-034A","EPOCH":"2026-03-16T19:41:22.939296","MEAN_MOTION":15.17569885,"ECCENTRICITY":0.003321,"INCLINATION":43.0159,"RA_OF_ASC_NODE":337.0279,"ARG_OF_PERICENTER":279.3097,"MEAN_ANOMALY":80.3997,"EPHEMERIS_TYPE":0,"CLASSIFICATION_TYPE":"U","NORAD_CAT_ID":42758,"ELEMENT_SET_NO":999,"REV_AT_EPOCH":48362,"BSTAR":0.00025047,"MEAN_MOTION_DOT":4.954e-5,"MEAN_MOTION_DDOT":0}]
